PLEIADES NEO 3          
1 48268U 21034A   26202.28952953  .00000419  00000+0  59864-4 0  9992
2 48268  97.8935 276.5657 0001346 100.2988 259.8377 14.81661965282708
PLEIADES NEO 4          
1 49070U 21073E   26202.32326682  .00000490  00000+0  68859-4 0  9999
2 49070  97.8934 276.5950 0001389  98.0668 262.0702 14.81674830266425
